WORLDVIEW-3 (WV-3)      
1 40115U 14048A   26117.29369219  .00000951  00000+0  11800-3 0  9993
2 40115  97.8577 192.8289 0002851 107.1645 252.9882 14.84935274634359
GAOFEN-2                
1 40118U 14049A   26117.29698672  .00000669  00000+0  93557-4 0  9991
2 40118  98.0142 181.5461 0008420  45.7886 314.4016 14.80840713631700
YAOGAN-21               
1 40143U 14053A   26117.27738525  .00009047  00000+0  35818-3 0  9998
2 40143  97.1527 159.7149 0006293 272.6407  87.4112 15.25628857647198
YAOGAN-22               
1 40275U 14063A   26117.00331921 -.00000012  00000+0  91323-4 0  9993
2 40275 100.7646 267.4405 0005799 308.1917  51.8671 13.15529597553087
ASNARO                  
1 40298U 14070A   26117.25671889  .00007879  00000+0  37252-3 0  9990
2 40298  97.3463 194.7369 0002708  18.4342 341.6990 15.19648885636276
YAOGAN-24               
1 40310U 14072A   26117.31277072  .00000319  00000+0  53788-4 0  9995
2 40310  98.1402 254.2430 0015211  68.5468 291.7362 14.76153182616215
CBERS 4                 
1 40336U 14079A   26117.29420562  .00000037  00000+0  27429-4 0  9991
2 40336  98.3393 175.7286 0001318 130.2065 229.9236 14.35544958596651
YAOGAN-26               
1 40362U 14088A   26117.26922916  .00030287  00000+0  63522-3 0  9990
2 40362  97.0659 118.7479 0003023 199.7669 160.3464 15.45336832629837
SMAP                    
1 40376U 15003A   26117.27666322  .00000490  00000+0  10385-3 0  9992
2 40376  98.1294 125.0887 0001771  76.5343 283.6056 14.63393057600175
KOMPSAT-3A              
1 40536U 15014A   26117.26819119  .00036751  00000+0  57765-3 0  9997
2 40536  97.6895 105.0046 0059184   5.0942 355.0899 15.51499408613912
SENTINEL-2A             
1 40697U 15028A   26117.30560324  .00000124  00000+0  64041-4 0  9997
2 40697  98.5622 192.8834 0001288  86.8725 273.2605 14.30823748566451
GAOFEN-8                
1 40701U 15030A   26117.31097163  .00017334  00000+0  37984-3 0  9999
2 40701  97.6935 307.6955 0009316  26.8356 333.3371 15.44125576603593
CARBONITE 1 (CBNT-1)    
1 40718U 15032D   26117.25829150  .00001612  00000+0  20210-3 0  9997
2 40718  97.6498 297.4676 0016049 100.9559 259.3462 14.83422692581797
YAOGAN-27               
1 40878U 15040A   26117.24663738  .00000590  00000+0  16655-2 0  9991
2 40878 100.1142 105.8453 0007987 337.5591  22.5172 13.16069694510963
GAOFEN-9 01             
1 40894U 15047A   26117.31761586  .00000964  00000+0  12493-3 0  9996
2 40894  97.6324 155.3140 0026100 309.0903  50.7989 14.82789969572656
YAOGAN-28               
1 41026U 15064A   26117.34307005  .00008837  00000+0  33797-3 0  9995
2 41026  97.2993 256.6885 0011005  19.1696 340.9955 15.26761662582926
YAOGAN-29               
1 41038U 15069A   26117.23864839  .00000893  00000+0  11648-3 0  9999
2 41038  98.0077 145.7832 0001885 138.4203 221.7154 14.83043376563074
