[{"OBJECT_NAME":"WORLDVIEW-3 (WV-3)","OBJECT_ID":"2014-048A","EPOCH":"2026-04-27T07:02:55.005216","MEAN_MOTION":14.84935274,"ECCENTRICITY":0.00028517,"INCLINATION":97.8577,"RA_OF_ASC_NODE":192.8289,"ARG_OF_PERICENTER":107.1645,"MEAN_ANOMALY":252.9882,"EPHEMERIS_TYPE":0,"CLASSIFICATION_TYPE":"U","NORAD_CAT_ID":40115,"ELEMENT_SET_NO":999,"REV_AT_EPOCH":63435,"BSTAR":0.00011800028,"MEAN_MOTION_DOT":9.51e-6,"MEAN_MOTION_DDOT":0},{"OBJECT_NAME":"GAOFEN-2","OBJECT_ID":"2014-049A","EPOCH":"2026-04-27T07:07:39.652608","MEAN_MOTION":14.80840713,"ECCENTRICITY":0.00084209,"INCLINATION":98.0142,"RA_OF_ASC_NODE":181.5461,"ARG_OF_PERICENTER":45.7886,"MEAN_ANOMALY":314.4016,"EPHEMERIS_TYPE":0,"CLASSIFICATION_TYPE":"U","NORAD_CAT_ID":40118,"ELEMENT_SET_NO":999,"REV_AT_EPOCH":63170,"BSTAR":9.3557258e-5,"MEAN_MOTION_DOT":6.69e-6,"MEAN_MOTION_DDOT":0},{"OBJECT_NAME":"YAOGAN-21","OBJECT_ID":"2014-053A","EPOCH":"2026-04-27T06:39:26.085600","MEAN_MOTION":15.25628857,"ECCENTRICITY":0.00062939,"INCLINATION":97.1527,"RA_OF_ASC_NODE":159.7149,"ARG_OF_PERICENTER":272.6407,"MEAN_ANOMALY":87.4112,"EPHEMERIS_TYPE":0,"CLASSIFICATION_TYPE":"U","NORAD_CAT_ID":40143,"ELEMENT_SET_NO":999,"REV_AT_EPOCH":64719,"BSTAR":0.00035818191,"MEAN_MOTION_DOT":9.047e-5,"MEAN_MOTION_DDOT":0},{"OBJECT_NAME":"YAOGAN-22","OBJECT_ID":"2014-063A","EPOCH":"2026-04-27T00:04:46.779744","MEAN_MOTION":13.15529597,"ECCENTRICITY":0.00057994,"INCLINATION":100.7646,"RA_OF_ASC_NODE":267.4405,"ARG_OF_PERICENTER":308.1917,"MEAN_ANOMALY":51.8671,"EPHEMERIS_TYPE":0,"CLASSIFICATION_TYPE":"U","NORAD_CAT_ID":40275,"ELEMENT_SET_NO":999,"REV_AT_EPOCH":55308,"BSTAR":9.13227e-5,"MEAN_MOTION_DOT":-1.2e-7,"MEAN_MOTION_DDOT":0},{"OBJECT_NAME":"ASNARO","OBJECT_ID":"2014-070A","EPOCH":"2026-04-27T06:09:40.512096","MEAN_MOTION":15.19648885,"ECCENTRICITY":0.00027084,"INCLINATION":97.3463,"RA_OF_ASC_NODE":194.7369,"ARG_OF_PERICENTER":18.4342,"MEAN_ANOMALY":341.699,"EPHEMERIS_TYPE":0,"CLASSIFICATION_TYPE":"U","NORAD_CAT_ID":40298,"ELEMENT_SET_NO":999,"REV_AT_EPOCH":63627,"BSTAR":0.00037252138,"MEAN_MOTION_DOT":7.879e-5,"MEAN_MOTION_DDOT":0},{"OBJECT_NAME":"YAOGAN-24","OBJECT_ID":"2014-072A","EPOCH":"2026-04-27T07:30:23.390208","MEAN_MOTION":14.76153182,"ECCENTRICITY":0.00152115,"INCLINATION":98.1402,"RA_OF_ASC_NODE":254.243,"ARG_OF_PERICENTER":68.5468,"MEAN_ANOMALY":291.7362,"EPHEMERIS_TYPE":0,"CLASSIFICATION_TYPE":"U","NORAD_CAT_ID":40310,"ELEMENT_SET_NO":999,"REV_AT_EPOCH":61621,"BSTAR":5.3787757e-5,"MEAN_MOTION_DOT":3.19e-6,"MEAN_MOTION_DDOT":0},{"OBJECT_NAME":"CBERS 4","OBJECT_ID":"2014-079A","EPOCH":"2026-04-27T07:03:39.365568","MEAN_MOTION":14.35544958,"ECCENTRICITY":0.00013181,"INCLINATION":98.3393,"RA_OF_ASC_NODE":175.7286,"ARG_OF_PERICENTER":130.2065,"MEAN_ANOMALY":229.9236,"EPHEMERIS_TYPE":0,"CLASSIFICATION_TYPE":"U","NORAD_CAT_ID":40336,"ELEMENT_SET_NO":999,"REV_AT_EPOCH":59665,"BSTAR":2.7428929e-5,"MEAN_MOTION_DOT":3.7e-7,"MEAN_MOTION_DDOT":0},{"OBJECT_NAME":"YAOGAN-26","OBJECT_ID":"2014-088A","EPOCH":"2026-04-27T06:27:41.399424","MEAN_MOTION":15.45336832,"ECCENTRICITY":0.00030235,"INCLINATION":97.0659,"RA_OF_ASC_NODE":118.7479,"ARG_OF_PERICENTER":199.7669,"MEAN_ANOMALY":160.3464,"EPHEMERIS_TYPE":0,"CLASSIFICATION_TYPE":"U","NORAD_CAT_ID":40362,"ELEMENT_SET_NO":999,"REV_AT_EPOCH":62983,"BSTAR":0.00063521667,"MEAN_MOTION_DOT":0.00030287,"MEAN_MOTION_DDOT":0},{"OBJECT_NAME":"SMAP","OBJECT_ID":"2015-003A","EPOCH":"2026-04-27T06:38:23.702208","MEAN_MOTION":14.63393057,"ECCENTRICITY":0.00017711,"INCLINATION":98.1294,"RA_OF_ASC_NODE":125.0887,"ARG_OF_PERICENTER":76.5343,"MEAN_ANOMALY":283.6056,"EPHEMERIS_TYPE":0,"CLASSIFICATION_TYPE":"U","NORAD_CAT_ID":40376,"ELEMENT_SET_NO":999,"REV_AT_EPOCH":60017,"BSTAR":0.00010384867,"MEAN_MOTION_DOT":4.9e-6,"MEAN_MOTION_DDOT":0},{"OBJECT_NAME":"KOMPSAT-3A","OBJECT_ID":"2015-014A","EPOCH":"2026-04-27T06:26:11.718816","MEAN_MOTION":15.51499408,"ECCENTRICITY":0.00591842,"INCLINATION":97.6895,"RA_OF_ASC_NODE":105.0046,"ARG_OF_PERICENTER":5.0942,"MEAN_ANOMALY":355.0899,"EPHEMERIS_TYPE":0,"CLASSIFICATION_TYPE":"U","NORAD_CAT_ID":40536,"ELEMENT_SET_NO":999,"REV_AT_EPOCH":61391,"BSTAR":0.0005776458,"MEAN_MOTION_DOT":0.00036751,"MEAN_MOTION_DDOT":0},{"OBJECT_NAME":"SENTINEL-2A","OBJECT_ID":"2015-028A","EPOCH":"2026-04-27T07:20:04.119936","MEAN_MOTION":14.30823748,"ECCENTRICITY":0.00012884,"INCLINATION":98.5622,"RA_OF_ASC_NODE":192.8834,"ARG_OF_PERICENTER":86.8725,"MEAN_ANOMALY":273.2605,"EPHEMERIS_TYPE":0,"CLASSIFICATION_TYPE":"U","NORAD_CAT_ID":40697,"ELEMENT_SET_NO":999,"REV_AT_EPOCH":56645,"BSTAR":6.4040946e-5,"MEAN_MOTION_DOT":1.24e-6,"MEAN_MOTION_DDOT":0},{"OBJECT_NAME":"GAOFEN-8","OBJECT_ID":"2015-030A","EPOCH":"2026-04-27T07:27:47.948832","MEAN_MOTION":15.44125576,"ECCENTRICITY":0.00093167,"INCLINATION":97.6935,"RA_OF_ASC_NODE":307.6955,"ARG_OF_PERICENTER":26.8356,"MEAN_ANOMALY":333.3371,"EPHEMERIS_TYPE":0,"CLASSIFICATION_TYPE":"U","NORAD_CAT_ID":40701,"ELEMENT_SET_NO":999,"REV_AT_EPOCH":60359,"BSTAR":0.00037983502,"MEAN_MOTION_DOT":0.00017334,"MEAN_MOTION_DDOT":0},{"OBJECT_NAME":"CARBONITE 1 (CBNT-1)","OBJECT_ID":"2015-032D","EPOCH":"2026-04-27T06:11:56.385600","MEAN_MOTION":14.83422692,"ECCENTRICITY":0.00160499,"INCLINATION":97.6498,"RA_OF_ASC_NODE":297.4676,"ARG_OF_PERICENTER":100.9559,"MEAN_ANOMALY":259.3462,"EPHEMERIS_TYPE":0,"CLASSIFICATION_TYPE":"U","NORAD_CAT_ID":40718,"ELEMENT_SET_NO":999,"REV_AT_EPOCH":58179,"BSTAR":0.00020209596,"MEAN_MOTION_DOT":1.612e-5,"MEAN_MOTION_DDOT":0},{"OBJECT_NAME":"YAOGAN-27","OBJECT_ID":"2015-040A","EPOCH":"2026-04-27T05:55:09.469632","MEAN_MOTION":13.16069694,"ECCENTRICITY":0.0007987,"INCLINATION":100.1142,"RA_OF_ASC_NODE":105.8453,"ARG_OF_PERICENTER":337.5591,"MEAN_ANOMALY":22.5172,"EPHEMERIS_TYPE":0,"CLASSIFICATION_TYPE":"U","NORAD_CAT_ID":40878,"ELEMENT_SET_NO":999,"REV_AT_EPOCH":51096,"BSTAR":0.0016654748,"MEAN_MOTION_DOT":5.9e-6,"MEAN_MOTION_DDOT":0},{"OBJECT_NAME":"GAOFEN-9 01","OBJECT_ID":"2015-047A","EPOCH":"2026-04-27T07:37:22.010304","MEAN_MOTION":14.82789969,"ECCENTRICITY":0.00261004,"INCLINATION":97.6324,"RA_OF_ASC_NODE":155.314,"ARG_OF_PERICENTER":309.0903,"MEAN_ANOMALY":50.7989,"EPHEMERIS_TYPE":0,"CLASSIFICATION_TYPE":"U","NORAD_CAT_ID":40894,"ELEMENT_SET_NO":999,"REV_AT_EPOCH":57265,"BSTAR":0.00012492807,"MEAN_MOTION_DOT":9.64e-6,"MEAN_MOTION_DDOT":0},{"OBJECT_NAME":"YAOGAN-28","OBJECT_ID":"2015-064A","EPOCH":"2026-04-27T08:14:01.252320","MEAN_MOTION":15.26761662,"ECCENTRICITY":0.00110054,"INCLINATION":97.2993,"RA_OF_ASC_NODE":256.6885,"ARG_OF_PERICENTER":19.1696,"MEAN_ANOMALY":340.9955,"EPHEMERIS_TYPE":0,"CLASSIFICATION_TYPE":"U","NORAD_CAT_ID":41026,"ELEMENT_SET_NO":999,"REV_AT_EPOCH":58292,"BSTAR":0.00033796864,"MEAN_MOTION_DOT":8.837e-5,"MEAN_MOTION_DDOT":0},{"OBJECT_NAME":"YAOGAN-29","OBJECT_ID":"2015-069A","EPOCH":"2026-04-27T05:43:39.220896","MEAN_MOTION":14.83043376,"ECCENTRICITY":0.00018853,"INCLINATION":98.0077,"RA_OF_ASC_NODE":145.7832,"ARG_OF_PERICENTER":138.4203,"MEAN_ANOMALY":221.7154,"EPHEMERIS_TYPE":0,"CLASSIFICATION_TYPE":"U","NORAD_CAT_ID":41038,"ELEMENT_SET_NO":999,"REV_AT_EPOCH":56307,"BSTAR":0.00011647961,"MEAN_MOTION_DOT":8.93e-6,"MEAN_MOTION_DDOT":0}]
